{"type": "FeatureCollection", "features": [ {"type": "Feature", "properties": {"norad_id": 66677, "name": "TRANSPORTER-15M", "group": "last-30-days", "lat": -50.01741042022521, "lon": 81.11329006951387, "alt_km": 518.8358431961078, "timestamp": "2025-12-26T15:29:38.166290+00:00", "meta": {"OBJECT_NAME": "TRANSPORTER-15M", "OBJECT_ID": "2025-276M", "EPOCH": "2025-12-26T06:13:18.202944", "MEAN_MOTION": 15.17580218, "ECCENTRICITY": 0.00038772, "INCLINATION": 97.4377, "RA_OF_ASC_NODE": 71.7716, "ARG_OF_PERICENTER": 248.3131, "MEAN_ANOMALY": 111.769, "EPHEMERIS_TYPE": 0, "CLASSIFICATION_TYPE": "U", "NORAD_CAT_ID": 66677, "ELEMENT_SET_NO": 999, "REV_AT_EPOCH": 417, "BSTAR": 0.00069984486, "MEAN_MOTION_DOT": 0.00014011, "MEAN_MOTION_DDOT": 0}, "tle": {"line1": "1 66677U 25276M   25360.25923846  .00014011  00000+0  69984-3 0  9994", "line2": "2 66677  97.4377  71.7716 0003877 248.3131 111.7690 15.17580218  4172"}}, "geometry": {"type": "Point", "coordinates": [81.11329006951387, -50.01741042022521]}}, {"type": "Feature", "properties": {"norad_id": 66678, "name": "TRANSPORTER-15N", "group": "last-30-days", "lat": -79.04126319014651, "lon": -150.30907106964162, "alt_km": 525.0794029100698, "timestamp": "2025-12-26T15:29:38.166300+00:00", "meta": {"OBJECT_NAME": "TRANSPORTER-15N", "OBJECT_ID": "2025-276N", "EPOCH": "2025-12-26T06:25:38.077248", "MEAN_MOTION": 15.16997359, "ECCENTRICITY": 0.00067896, "INCLINATION": 97.4388, "RA_OF_ASC_NODE": 71.7561, "ARG_OF_PERICENTER": 30.4392, "MEAN_ANOMALY": 329.7234, "EPHEMERIS_TYPE": 0, "CLASSIFICATION_TYPE": "U", "NORAD_CAT_ID": 66678, "ELEMENT_SET_NO": 999, "REV_AT_EPOCH": 417, "BSTAR": 0.00064833777, "MEAN_MOTION_DOT": 0.00012763, "MEAN_MOTION_DDOT": 0}, "tle": {"line1": "1 66678U 25276N   25360.26780182  .00012763  00000+0  64834-3 0  9991", "line2": "2 66678  97.4388  71.7561 0006789  30.4392 329.7234 15.16997359  4179"}}, "geometry": {"type": "Point", "coordinates": [-150.30907106964162, -79.04126319014651]}}, {"type": "Feature", "properties": {"norad_id": 66679, "name": "TRANSPORTER-15P", "group": "last-30-days", "lat": -70.77629365669364, "lon": -129.87442341472092, "alt_km": 519.8427318599988, "timestamp": "2025-12-26T15:29:38.166310+00:00", "meta": {"OBJECT_NAME": "TRANSPORTER-15P", "OBJECT_ID": "2025-276P", "EPOCH": "2025-12-26T06:28:05.935296", "MEAN_MOTION": 15.16721197, "ECCENTRICITY": 0.00047541, "INCLINATION": 97.4359, "RA_OF_ASC_NODE": 71.7532, "ARG_OF_PERICENTER": 242.2177, "MEAN_ANOMALY": 117.8574, "EPHEMERIS_TYPE": 0, "CLASSIFICATION_TYPE": "U", "NORAD_CAT_ID": 66679, "ELEMENT_SET_NO": 999, "REV_AT_EPOCH": 417, "BSTAR": 0.00020665563, "MEAN_MOTION_DOT": 3.985e-05, "MEAN_MOTION_DDOT": 0}, "tle": {"line1": "1 66679U 25276P   25360.26951314  .00003985  00000+0  20666-3 0  9990", "line2": "2 66679  97.4359  71.7532 0004754 242.2177 117.8574 15.16721197  4178"}}, "geometry": {"type": "Point", "coordinates": [-129.87442341472092, -70.77629365669364]}}, {"type": "Feature", "properties": {"norad_id": 66680, "name": "TRANSPORTER-15Q", "group": "last-30-days", "lat": -79.24170887376096, "lon": -151.31602800748314, "alt_km": 519.7112886057594, "timestamp": "2025-12-26T15:29:38.166322+00:00", "meta": {"OBJECT_NAME": "TRANSPORTER-15Q", "OBJECT_ID": "2025-276Q", "EPOCH": "2025-12-25T05:05:38.818176", "MEAN_MOTION": 15.16866532, "ECCENTRICITY": 0.000484, "INCLINATION": 97.4407, "RA_OF_ASC_NODE": 70.7353, "ARG_OF_PERICENTER": 236.3987, "MEAN_ANOMALY": 123.6784, "EPHEMERIS_TYPE": 0, "CLASSIFICATION_TYPE": "U", "NORAD_CAT_ID": 66680, "ELEMENT_SET_NO": 999, "REV_AT_EPOCH": 401, "BSTAR": 0.00055928, "MEAN_MOTION_DOT": 0.00010954, "MEAN_MOTION_DDOT": 0}, "tle": {"line1": "1 66680U 25276Q   25359.21225484  .00010954  00000+0  55928-3 0  9990", "line2": "2 66680  97.4407  70.7353 0004840 236.3987 123.6784 15.16866532  4017"}}, "geometry": {"type": "Point", "coordinates": [-151.31602800748314, -79.24170887376096]}}, {"type": "Feature", "properties": {"norad_id": 66681, "name": "TRANSPORTER-15R", "group": "last-30-days", "lat": -60.53226418751906, "lon": 85.49006472076485, "alt_km": 517.7330731989568, "timestamp": "2025-12-26T15:29:38.166335+00:00", "meta": {"OBJECT_NAME": "TRANSPORTER-15R", "OBJECT_ID": "2025-276R", "EPOCH": "2025-12-26T04:41:11.992416", "MEAN_MOTION": 15.17565628, "ECCENTRICITY": 0.00048732, "INCLINATION": 97.433, "RA_OF_ASC_NODE": 71.6888, "ARG_OF_PERICENTER": 261.0089, "MEAN_ANOMALY": 99.0593, "EPHEMERIS_TYPE": 0, "CLASSIFICATION_TYPE": "U", "NORAD_CAT_ID": 66681, "ELEMENT_SET_NO": 999, "REV_AT_EPOCH": 416, "BSTAR": 0.00085927465, "MEAN_MOTION_DOT": 0.0001722, "MEAN_MOTION_DDOT": 0}, "tle": {"line1": "1 66681U 25276R   25360.19527769  .00017220  00000+0  85927-3 0  9996", "line2": "2 66681  97.4330  71.6888 0004873 261.0089  99.0593 15.17565628  4163"}}, "geometry": {"type": "Point", "coordinates": [85.49006472076485, -60.53226418751906]}}, {"type": "Feature", "properties": {"norad_id": 66682, "name": "TRANSPORTER-15S", "group": "last-30-days", "lat": -79.67197810728159, "lon": -153.69812984050117, "alt_km": 531.882143018328, "timestamp": "2025-12-26T15:29:38.166345+00:00", "meta": {"OBJECT_NAME": "TRANSPORTER-15S", "OBJECT_ID": "2025-276S", "EPOCH": "2025-12-26T03:14:15.689184", "MEAN_MOTION": 15.14283917, "ECCENTRICITY": 0.00194149, "INCLINATION": 97.4452, "RA_OF_ASC_NODE": 71.6579, "ARG_OF_PERICENTER": 164.6738, "MEAN_ANOMALY": 195.5086, "EPHEMERIS_TYPE": 0, "CLASSIFICATION_TYPE": "U", "NORAD_CAT_ID": 66682, "ELEMENT_SET_NO": 999, "REV_AT_EPOCH": 415, "BSTAR": 0.015164845, "MEAN_MOTION_DOT": 0.00289588, "MEAN_MOTION_DDOT": 0}, "tle": {"line1": "1 66682U 25276S   25360.13490381  .00289588  00000+0  15165-1 0  9993", "line2": "2 66682  97.4452  71.6579 0019414 164.6738 195.5086 15.14283917  4155"}}, "geometry": {"type": "Point", "coordinates": [-153.69812984050117, -79.67197810728159]}}, {"type": "Feature", "properties": {"norad_id": 66683, "name": "TRANSPORTER-15T", "group": "last-30-days", "lat": -80.7826467570142, "lon": 125.84397070333655, "alt_km": 519.9206127585312, "timestamp": "2025-12-26T15:29:38.166355+00:00", "meta": {"OBJECT_NAME": "TRANSPORTER-15T", "OBJECT_ID": "2025-276T", "EPOCH": "2025-12-26T06:22:05.614464", "MEAN_MOTION": 15.17068217, "ECCENTRICITY": 0.0004856, "INCLINATION": 97.4443, "RA_OF_ASC_NODE": 71.7871, "ARG_OF_PERICENTER": 226.3125, "MEAN_ANOMALY": 133.7706, "EPHEMERIS_TYPE": 0, "CLASSIFICATION_TYPE": "U", "NORAD_CAT_ID": 66683, "ELEMENT_SET_NO": 999, "REV_AT_EPOCH": 417, "BSTAR": 0.00041504256, "MEAN_MOTION_DOT": 8.156e-05, "MEAN_MOTION_DDOT": 0}, "tle": {"line1": "1 66683U 25276T   25360.26534276  .00008156  00000+0  41504-3 0  9998", "line2": "2 66683  97.4443  71.7871 0004856 226.3125 133.7706 15.17068217  4174"}}, "geometry": {"type": "Point", "coordinates": [125.84397070333655, -80.7826467570142]}}, {"type": "Feature", "properties": {"norad_id": 66684, "name": "TRANSPORTER-15U", "group": "last-30-days", "lat": -62.19087759359924, "lon": 86.53701662732472, "alt_km": 519.9636059364348, "timestamp": "2025-12-26T15:29:38.166393+00:00", "meta": {"OBJECT_NAME": "TRANSPORTER-15U", "OBJECT_ID": "2025-276U", "EPOCH": "2025-12-26T04:41:35.589984", "MEAN_MOTION": 15.17399931, "ECCENTRICITY": 0.00046333, "INCLINATION": 97.4469, "RA_OF_ASC_NODE": 71.736, "ARG_OF_PERICENTER": 225.144, "MEAN_ANOMALY": 134.9418, "EPHEMERIS_TYPE": 0, "CLASSIFICATION_TYPE": "U", "NORAD_CAT_ID": 66684, "ELEMENT_SET_NO": 999, "REV_AT_EPOCH": 416, "BSTAR": 0.00056907919, "MEAN_MOTION_DOT": 0.00011319, "MEAN_MOTION_DDOT": 0}, "tle": {"line1": "1 66684U 25276U   25360.19555081  .00011319  00000+0  56908-3 0  9997", "line2": "2 66684  97.4469  71.7360 0004633 225.1440 134.9418 15.17399931  4168"}}, "geometry": {"type": "Point", "coordinates": [86.53701662732472, -62.19087759359924]}}, {"type": "Feature", "properties": {"norad_id": 66685, "name": "TRANSPORTER-15V", "group": "last-30-days", "lat": -53.83914633553879, "lon": 82.46461435114428, "alt_km": 520.4977034851518, "timestamp": "2025-12-26T15:29:38.166404+00:00", "meta": {"OBJECT_NAME": "TRANSPORTER-15V", "OBJECT_ID": "2025-276V", "EPOCH": "2025-12-26T03:04:19.749504", "MEAN_MOTION": 15.17397324, "ECCENTRICITY": 0.00032136, "INCLINATION": 97.4413, "RA_OF_ASC_NODE": 71.6542, "ARG_OF_PERICENTER": 231.2605, "MEAN_ANOMALY": 128.8342, "EPHEMERIS_TYPE": 0, "CLASSIFICATION_TYPE": "U", "NORAD_CAT_ID": 66685, "ELEMENT_SET_NO": 999, "REV_AT_EPOCH": 415, "BSTAR": -0.0041618973, "MEAN_MOTION_DOT": -0.00082255, "MEAN_MOTION_DDOT": 0}, "tle": {"line1": "1 66685U 25276V   25360.12800636 -.00082255  00000+0 -41619-2 0  9991", "line2": "2 66685  97.4413  71.6542 0003213 231.2605 128.8342 15.17397324  4154"}}, "geometry": {"type": "Point", "coordinates": [82.46461435114428, -53.83914633553879]}}, {"type": "Feature", "properties": {"norad_id": 66686, "name": "TRANSPORTER-15W", "group": "last-30-days", "lat": -61.744045994215085, "lon": 86.22860008611481, "alt_km": 512.0800329710391, "timestamp": "2025-12-26T15:29:38.166416+00:00", "meta": {"OBJECT_NAME": "TRANSPORTER-15W", "OBJECT_ID": "2025-276W", "EPOCH": "2025-12-24T16:18:47.855520", "MEAN_MOTION": 15.18035485, "ECCENTRICITY": 0.00181838, "INCLINATION": 97.4405, "RA_OF_ASC_NODE": 70.2223, "ARG_OF_PERICENTER": 243.6801, "MEAN_ANOMALY": 116.2566, "EPHEMERIS_TYPE": 0, "CLASSIFICATION_TYPE": "U", "NORAD_CAT_ID": 66686, "ELEMENT_SET_NO": 999, "REV_AT_EPOCH": 393, "BSTAR": 0.0029615296, "MEAN_MOTION_DOT": 0.00060911, "MEAN_MOTION_DDOT": 0}, "tle": {"line1": "1 66686U 25276W   25358.67972055  .00060911  00000+0  29615-2 0  9999", "line2": "2 66686  97.4405  70.2223 0018183 243.6801 116.2566 15.18035485  3936"}}, "geometry": {"type": "Point", "coordinates": [86.22860008611481, -61.744045994215085]}}]}